{
  "norad_id": 54167,
  "name": "STARLINK-5243",
  "history": [
    {
      "epoch": "2026-03-28T20:30:56.657088Z",
      "apogee_km": 540.8011989001088,
      "perigee_km": 538.7075682517825,
      "latitude_deg": -7.916426520037237e-06,
      "longitude_deg": 153.86093558109425,
      "height_km": 540.7248642187725,
      "semi_major_axis_km": 6917.891383575945,
      "eccentricity": 0.00015132,
      "inclination_deg": 53.217,
      "raan_deg": 287.8663,
      "arg_perigee_deg": 94.11,
      "mean_anomaly_deg": 266.0065,
      "mean_motion_rev_day": 15.08836403
    }
  ]
}